[
    {
        "Altitude(m)": 605470.7945512803,
        "Argument of Periapsis(deg)": 0.0,
        "Eccentricity": 0.0,
        "Inclination(deg)": 60.0,
        "Latitude(deg)": 27.988220930611515,
        "Longitude(deg)": 127.26296953405463,
        "Mean Anomaly(deg)": 147.2727,
        "RAAN(deg)": 65.0,
        "Satellite Name": "Test1 295",
        "Satellite Number": 295,
        "Semi-Major Axis(m)": 6980739.136638005,
        "Time(s)": 0
    },
    {
        "Altitude(m)": 605395.8322984729,
        "Argument of Periapsis(deg)": 0.00010418945913296404,
        "Eccentricity": 0.0,
        "Inclination(deg)": 60.0,
        "Latitude(deg)": 27.47391136485695,
        "Longitude(deg)": 127.61615687407465,
        "Mean Anomaly(deg)": 147.8928061454618,
        "RAAN(deg)": 64.99957995086025,
        "Satellite Name": "Test1 295",
        "Satellite Number": 295,
        "Semi-Major Axis(m)": 6980739.136638005,
        "Time(s)": 10
    }
]